SatCatId,ObjectName,LaunchYear,OrbitalPeriod,LaunchMass,StatusCode,Inclination,Status,UcsData,OrbitClassEstimated,LaunchSiteCountry,Owner,UseType,Purpose,LaunchVehicleClass,TLE1,TLE2,MeanMotion,Eccentricity,OrbitClass
45374,STARLINK-1300,2020,95.59,227.0,+,53.05,Active,1,LEO,USA,USA,Commercial,Communications,Falcon,1 45374U 20019Q   23028.23958713  .00001125  00000+0  94410-4 0  9998,2 45374  53.0542 228.3436 0001493  96.1820 263.9339 15.06392790158444,15.0639279,0.0001493,LEO
45375,STARLINK-1302,2020,95.59,227.0,+,53.05,Active,1,LEO,USA,USA,Commercial,Communications,Falcon,1 45375U 20019R   23028.25430258  .00002016  00000+0  15416-3 0  9998,2 45375  53.0551 228.2736 0001100  86.9528 273.1586 15.06407083158443,15.06407083,0.00011,LEO
45376,STARLINK-1304,2020,95.59,227.0,+,53.05,Active,1,LEO,USA,USA,Commercial,Communications,Falcon,1 45376U 20019S   23027.87466258  .00000747  00000+0  69070-4 0  9990,2 45376  53.0548 229.9773 0001160 103.1772 256.9346 15.06396501158386,15.06396501,0.000116,LEO
45377,STARLINK-1305,2020,95.59,227.0,+,53.05,Active,1,LEO,USA,USA,Commercial,Communications,Falcon,1 45377U 20019T   23027.83410710 -.00001792  00000+0 -10150-3 0  9996,2 45377  53.0537 230.1558 0001155  93.1425 266.9696 15.06390079158380,15.06390079,0.0001155,LEO
45378,STARLINK-1310,2020,95.59,227.0,+,53.05,Active,1,LEO,USA,USA,Commercial,Communications,Falcon,1 45378U 20019U   23027.82305931  .00001524  00000+0  12121-3 0  9995,2 45378  53.0525 230.2139 0001165  82.5434 277.5687 15.06394257158387,15.06394257,0.0001165,LEO
45379,STARLINK-1319,2020,95.59,227.0,+,53.05,Active,1,LEO,USA,USA,Commercial,Communications,Falcon,1 45379U 20019V   23027.82674855  .00000071  00000+0  23621-4 0  9994,2 45379  53.0539 230.1953 0000914  83.7710 276.3383 15.06400082158381,15.06400082,9.14e-05,LEO
45380,STARLINK-1207,2020,95.59,227.0,+,53.05,Active,1,LEO,USA,USA,Commercial,Communications,Falcon,1 45380U 20019W   23027.82489848  .00000900  00000+0  79316-4 0  9995,2 45380  53.0530 210.2068 0000985  89.8868 270.2234 15.06395812158651,15.06395812,9.85e-05,LEO
45381,STARLINK-1258,2020,95.59,227.0,+,53.05,Active,1,LEO,USA,USA,Commercial,Communications,Falcon,1 45381U 20019X   23027.76960876  .00000809  00000+0  73228-4 0  9998,2 45381  53.0525 210.4620 0001281  83.8401 276.2734 15.06399298158641,15.06399298,0.0001281,LEO
45382,STARLINK-1264,2020,95.18,227.0,P,53.05,Active,1,LEO,USA,USA,Commercial,Communications,Falcon,1 45382U 20019Y   23028.22613148  .00034501  00000+0  19449-2 0  9997,2 45382  53.0490 205.7311 0001006 106.8067 253.3035 15.12896214158575,15.12896214,0.0001006,LEO
45383,STARLINK-1266,2020,95.59,227.0,+,53.05,Active,1,LEO,USA,USA,Commercial,Communications,Falcon,1 45383U 20019Z   23027.76223535 -.00003591  00000+0 -22230-3 0  9993,2 45383  53.0523 210.4937 0001362  90.3274 269.7871 15.06403266158643,15.06403266,0.0001362,LEO
45384,STARLINK-1267,2020,95.59,227.0,+,53.05,Active,1,LEO,USA,USA,Commercial,Communications,Falcon,1 45384U 20019AA  23027.81658219  .00003698  00000+0  26705-3 0  9998,2 45384  53.0522 210.2383 0001166  95.1277 264.9845 15.06393588158658,15.06393588,0.0001166,LEO
45386,STARLINK-1272,2020,95.59,227.0,+,53.05,Active,1,LEO,USA,USA,Commercial,Communications,Falcon,1 45386U 20019AC  23027.82121240  .00000476  00000+0  50824-4 0  9991,2 45386  53.0534 210.2168 0001124  82.5310 277.5807 15.06395512158653,15.06395512,0.0001124,LEO
45387,STARLINK-1274,2020,95.59,227.0,+,53.05,Active,1,LEO,USA,USA,Commercial,Communications,Falcon,1 45387U 20019AD  23027.77697835 -.00000190  00000+0  61353-5 0  9998,2 45387  53.0527 210.4190 0000946  95.0404 265.0693 15.06400977158643,15.06400977,9.46e-05,LEO
45388,STARLINK-1280,2020,95.59,227.0,+,53.05,Active,1,LEO,USA,USA,Commercial,Communications,Falcon,1 45388U 20019AE  23027.87834751  .00001026  00000+0  87785-4 0  9994,2 45388  53.0519 229.9648 0001120 104.9579 255.1534 15.06397188158379,15.06397188,0.000112,LEO
45389,STARLINK-1283,2020,95.59,227.0,+,53.05,Active,1,LEO,USA,USA,Commercial,Communications,Falcon,1 45389U 20019AF  23028.18981248  .00005468  00000+0  38598-3 0  9995,2 45389  53.0535 208.5613 0001213  85.7713 274.3414 15.06372819158714,15.06372819,0.0001213,LEO
45390,STARLINK-1284,2020,95.59,227.0,+,53.05,Active,1,LEO,USA,USA,Commercial,Communications,Falcon,1 45390U 20019AG  23027.76592455  .00000735  00000+0  68245-4 0  9993,2 45390  53.0527 210.4703 0001123  86.1577 273.9540 15.06395737158643,15.06395737,0.0001123,LEO
45391,STARLINK-1289,2020,95.59,227.0,+,53.05,Active,1,LEO,USA,USA,Commercial,Communications,Falcon,1 45391U 20019AH  23027.77973590  .00006397  00000+0  44777-3 0  9991,2 45391  53.0507 210.4040 0001055  98.8835 261.2273 15.06414798158379,15.06414798,0.0001055,LEO
45392,STARLINK-1290,2020,94.47,227.0,+,52.98,Active,1,LEO,USA,USA,Commercial,Communications,Falcon,1 45392U 20019AJ  23028.11097398  .00033542  00000+0  13571-2 0  9993,2 45392  52.9763 178.0207 0001833  98.8912 261.2292 15.24425050158796,15.2442505,0.0001833,LEO
45393,STARLINK-1291,2020,95.59,227.0,+,53.05,Active,1,LEO,USA,USA,Commercial,Communications,Falcon,1 45393U 20019AK  23027.81015519  .00000721  00000+0  67312-4 0  9992,2 45393  53.0538 210.2748 0001000  83.0685 277.0418 15.06393912158412,15.06393912,0.0001,LEO
45394,STARLINK-1292,2020,95.59,227.0,+,53.05,Active,1,LEO,USA,USA,Commercial,Communications,Falcon,1 45394U 20019AL  23027.83964276  .00000510  00000+0  53146-4 0  9994,2 45394  53.0518 210.1385 0001429  76.1330 283.9818 15.06397478158390,15.06397478,0.0001429,LEO
45395,STARLINK-1297,2020,95.59,227.0,+,53.05,Active,1,LEO,USA,USA,Commercial,Communications,Falcon,1 45395U 20019AM  23027.80278375  .00000342  00000+0  41823-4 0  9992,2 45395  53.0542 210.3047 0001150  95.9562 264.1558 15.06393587158414,15.06393587,0.000115,LEO
45396,STARLINK-1303,2020,95.59,227.0,+,53.05,Active,1,LEO,USA,USA,Commercial,Communications,Falcon,1 45396U 20019AN  23027.78435343  .00000558  00000+0  56350-4 0  9990,2 45396  53.0538 210.3846 0001067  86.0216 274.0895 15.06395674158368,15.06395674,0.0001067,LEO
45397,STARLINK-1307,2020,95.59,227.0,+,53.06,Active,1,LEO,USA,USA,Commercial,Communications,Falcon,1 45397U 20019AP  23027.79540940  .00000254  00000+0  35947-4 0  9994,2 45397  53.0551 210.3266 0001195  84.3942 275.7183 15.06398081158474,15.06398081,0.0001195,LEO
45398,STARLINK-1312,2020,95.59,227.0,+,53.05,Active,1,LEO,USA,USA,Commercial,Communications,Falcon,1 45398U 20019AQ  23027.85438547  .00000175  00000+0  30654-4 0  9993,2 45398  53.0514 210.0800 0000923  87.4667 272.6427 15.06395349158416,15.06395349,9.23e-05,LEO
45399,STARLINK-1255,2020,95.59,227.0,+,53.06,Active,1,LEO,USA,USA,Commercial,Communications,Falcon,1 45399U 20019AR  23027.82950391  .00000684  00000+0  64782-4 0  9991,2 45399  53.0557 200.1740 0001205  82.7977 277.3149 15.06397774158601,15.06397774,0.0001205,LEO
45400,STARLINK-1213,2020,95.59,227.0,+,53.06,Active,1,LEO,USA,USA,Commercial,Communications,Falcon,1 45400U 20019AS  23027.71155821  .00000888  00000+0  78496-4 0  9990,2 45400  53.0550 200.7206 0001267  97.8079 262.3054 15.06392719158511,15.06392719,0.0001267,LEO
45401,STARLINK-1256,2020,95.59,227.0,+,53.05,Active,1,LEO,USA,USA,Commercial,Communications,Falcon,1 45401U 20019AT  23028.23864616  .00000336  00000+0  41468-4 0  9995,2 45401  53.0521 198.3557 0001185  86.1779 273.9346 15.06395145158662,15.06395145,0.0001185,LEO
45402,STARLINK-1257,2020,95.59,227.0,+,53.05,Active,1,LEO,USA,USA,Commercial,Communications,Falcon,1 45402U 20019AU  23027.70323764  .00000667  00000+0  63656-4 0  9991,2 45402  53.0524 200.7480 0001237  87.9554 272.1577 15.06394132158591,15.06394132,0.0001237,LEO
45403,STARLINK-1259,2020,95.59,227.0,+,53.05,Active,1,LEO,USA,USA,Commercial,Communications,Falcon,1 45403U 20019AV  23027.78531007  .00001738  00000+0  13562-3 0  9991,2 45403  53.0550 200.3739 0001278  80.0238 280.0895 15.06383625158598,15.06383625,0.0001278,LEO
45404,STARLINK-1260,2020,95.59,227.0,+,53.05,Active,1,LEO,USA,USA,Commercial,Communications,Falcon,1 45404U 20019AW  23027.79633122  .00000925  00000+0  81011-4 0  9996,2 45404  53.0524 200.3388 0001111  83.4609 276.6506 15.06396502158504,15.06396502,0.0001111,LEO
45405,STARLINK-1263,2020,95.59,227.0,+,53.05,Active,1,LEO,USA,USA,Commercial,Communications,Falcon,1 45405U 20019AX  23028.17967102  .00000399  00000+0  45664-4 0  9997,2 45405  53.0522 198.6216 0000970  86.9396 273.1704 15.06394739158563,15.06394739,9.7e-05,LEO
45406,STARLINK-1265,2020,95.59,227.0,+,53.05,Active,1,LEO,USA,USA,Commercial,Communications,Falcon,1 45406U 20019AY  23027.78895932  .00001020  00000+0  87383-4 0  9991,2 45406  53.0545 200.3625 0001108  87.3596 272.7520 15.06395454158505,15.06395454,0.0001108,LEO
45407,STARLINK-1275,2020,95.59,227.0,+,53.05,Active,1,LEO,USA,USA,Commercial,Communications,Falcon,1 45407U 20019AZ  23027.73640583 -.00001203  00000+0 -61898-4 0  9995,2 45407  53.0526 200.6013 0001120  86.2199 273.8918 15.06391514158494,15.06391514,0.000112,LEO
45408,STARLINK-1278,2020,95.59,227.0,+,53.05,Active,1,LEO,USA,USA,Commercial,Communications,Falcon,1 45408U 20019BA  23027.81568738  .00000972  00000+0  84118-4 0  9996,2 45408  53.0518 230.2478 0001145  83.4202 276.6917 15.06394524158091,15.06394524,0.0001145,LEO
45409,STARLINK-1282,2020,95.59,227.0,+,53.05,Active,1,LEO,USA,USA,Commercial,Communications,Falcon,1 45409U 20019BB  23027.74472880  .00000293  00000+0  38540-4 0  9995,2 45409  53.0541 200.5629 0001262  81.0043 279.1089 15.06399269158508,15.06399269,0.0001262,LEO
45411,STARLINK-1293,2020,95.59,227.0,+,53.05,Active,1,LEO,USA,USA,Commercial,Communications,Falcon,1 45411U 20019BD  23027.75947271  .00000598  00000+0  59021-4 0  9995,2 45411  53.0543 200.4952 0001222  86.0555 274.0573 15.06395486158521,15.06395486,0.0001222,LEO
